0 FENGYUN 1C DEB
1 31148U 99025BHA 13283.16502284  .00001468  00000-0  52947-3 0  5880
2 31148 098.8470 354.6250 0171654 125.2831 266.1501 14.27282621338590
0 FENGYUN 1C DEB
1 31148U 99025BHA 13286.69330606  .00001627  00000-0  58526-3 0  5895
2 31148 098.8441 358.1935 0171411 115.1159 035.1888 14.27292057339091
0 FENGYUN 1C DEB
1 31148U 99025BHA 13288.14247249  .00002320  00000-0  82731-3 0  5905
2 31148 098.8426 359.6581 0171267 110.9270 281.3472 14.27301155339301
0 FENGYUN 1C DEB
1 31148U 99025BHA 13292.13822454  .00001759  00000-0  63131-3 0  5915
2 31148 098.8416 003.7004 0171042 099.3788 292.6682 14.27314844339871
0 FENGYUN 1C DEB
1 31148U 99025BHA 13293.70348795  .00002184  00000-0  78021-3 0  5928
2 31148 098.8416 005.2837 0170908 094.8430 055.5149 14.27318205340091
0 FENGYUN 1C DEB
1 31148U 99025BHA 13295.15258328  .00002142  00000-0  76530-3 0  5939
2 31148 098.8409 006.7491 0170870 090.6445 301.4691 14.27323143340309
